STARLINK-36840          
1 67850U 26034A   26065.82353457  .00255002  00000+0  12524-2 0  9996
2 67850  53.1595 225.7221 0000818  75.5904 284.5210 15.80965693  3483
STARLINK-36348          
1 67851U 26034B   26065.82278155  .00136522  00000+0  68243-3 0  9993
2 67851  53.1596 225.7159 0001129  57.3053 302.8078 15.80933898  3482
STARLINK-36276          
1 67852U 26034C   26065.82201692  .00180052  00000+0  89426-3 0  9999
2 67852  53.1595 225.7111 0000746  85.9002 274.2106 15.80936227  3488
STARLINK-36785          
1 67853U 26034D   26065.82128042  .00246205  00000+0  12100-2 0  9994
2 67853  53.1595 225.7058 0000738  50.2384 309.8704 15.80974126  3487
STARLINK-36608          
1 67854U 26034E   26065.82053103  .00189766  00000+0  94051-3 0  9994
2 67854  53.1598 225.7011 0000491  74.3449 285.7628 15.80953226  3479
STARLINK-36838          
1 67855U 26034F   26065.81977912  .00315347  00000+0  15344-2 0  9990
2 67855  53.1595 225.6957 0000618  53.4858 306.6222 15.81001602  3485
STARLINK-36843          
1 67856U 26034G   26065.81827835  .00282678  00000+0  13817-2 0  9992
2 67856  53.1595 225.6857 0000558  28.7121 331.3933 15.80992051  3486
STARLINK-36828          
1 67857U 26034H   26065.81903293  .00196800  00000+0  97465-3 0  9999
2 67857  53.1593 225.6913 0001016  79.1731 280.9406 15.80949002  3487
STARLINK-36837          
1 67858U 26034J   26065.81752976  .00201329  00000+0  99615-3 0  9992
2 67858  53.1595 225.6801 0000684  33.0875 327.0191 15.80955953  3480
STARLINK-36393          
1 67859U 26034K   26065.81678050  .00198094  00000+0  98078-3 0  9999
2 67859  53.1597 225.6748 0000774  69.1796 290.9310 15.80951315  3484
STARLINK-35873          
1 67860U 26034L   26065.81602859  .00318141  00000+0  15475-2 0  9991
2 67860  53.1594 225.6696 0000299 111.8794 248.2261 15.81000791  3519
STARLINK-36325          
1 67861U 26034M   26065.81528037  .00158474  00000+0  78938-3 0  9992
2 67861  53.1597 225.6649 0000652  47.5007 312.6071 15.80939352  3480
